IRIDIUM 106             
1 41917U 17003A   24033.68678490  .00000006  00000+0 -50567-5 0  9997
2 41917  86.3936  90.2512 0001911 104.5835 255.5573 14.34217542369155
IRIDIUM 103             
1 41918U 17003B   24033.67409625  .00000312  00000+0  10450-3 0  9993
2 41918  86.3938  90.1587 0002058  85.3362 274.8069 14.34219969369174
IRIDIUM 109             
1 41919U 17003C   24033.88974776  .00000061  00000+0  14851-4 0  9992
2 41919  86.3938  90.1138 0002432  90.1822 269.9652 14.34218284369170
IRIDIUM 102             
1 41920U 17003D   24033.64873081  .00000110  00000+0  32073-4 0  9996
2 41920  86.3938  90.1566 0002271  90.0990 270.0466 14.34217374369224
IRIDIUM 105             
1 41921U 17003E   24033.61943070  .00000346  00000+0  11651-3 0  9999
2 41921  86.3931  58.5657 0002174  90.4318 269.7127 14.34230285371078
IRIDIUM 104             
1 41922U 17003F   24033.66141575  .00000303  00000+0  10109-3 0  9995
2 41922  86.3938  90.1807 0002241  89.4954 270.6498 14.34217678369210
IRIDIUM 114             
1 41923U 17003G   24033.66775691  .00000015  00000+0 -15374-5 0  9990
2 41923  86.3938  90.1643 0002016  99.5993 260.5430 14.34217018369193
IRIDIUM 108             
1 41924U 17003H   24033.55650624  .00000260  00000+0  85851-4 0  9994
2 41924  86.3926  58.5256 0002045  99.0243 261.1185 14.34215963371031
